[{"OBJECT_NAME":"PROPCUBE 1 (FLORA)","OBJECT_ID":"2015-058N","EPOCH":"2026-03-09T22:10:52.593312","MEAN_MOTION":14.88641208,"ECCENTRICITY":0.01301152,"INCLINATION":64.774,"RA_OF_ASC_NODE":242.7389,"ARG_OF_PERICENTER":100.0601,"MEAN_ANOMALY":261.522,"EPHEMERIS_TYPE":0,"CLASSIFICATION_TYPE":"U","NORAD_CAT_ID":40976,"ELEMENT_SET_NO":999,"REV_AT_EPOCH":10148,"BSTAR":0.00044491072,"MEAN_MOTION_DOT":4.703e-5,"MEAN_MOTION_DDOT":0},{"OBJECT_NAME":"TRANSPORTER-15 OBJECT CJ","OBJECT_ID":"2025-276CJ","EPOCH":"2026-03-09T17:19:57.485568","MEAN_MOTION":15.21041958,"ECCENTRICITY":0.00108056,"INCLINATION":97.3697,"RA_OF_ASC_NODE":143.6602,"ARG_OF_PERICENTER":305.0415,"MEAN_ANOMALY":54.9807,"EPHEMERIS_TYPE":0,"CLASSIFICATION_TYPE":"U","NORAD_CAT_ID":66746,"ELEMENT_SET_NO":999,"REV_AT_EPOCH":1533,"BSTAR":0.00077607464,"MEAN_MOTION_DOT":0.00017213,"MEAN_MOTION_DDOT":0}]
